NORAD_CAT_ID,OBJECT_NAME,OBJECT_TYPE,EPOCH,MEAN_MOTION,ECCENTRICITY,INCLINATION,RA_OF_ASC_NODE,ARG_OF_PERICENTER,MEAN_ANOMALY,BSTAR,MEAN_MOTION_DOT,MEAN_MOTION_DDOT,TLE_LINE0,TLE_LINE1,TLE_LINE2,SEMIMAJOR_AXIS,PERIOD,APOGEE,PERIGEE,DECAYED
51721.0,STARLINK-3524,PAYLOAD,2023-06-20 12:37:09,15.08840404,0.0001195,53.2165,107.6135,75.5414,284.571,0.00012247,1.662e-05,0.0,0 STARLINK-3524,1 51721U 22016H   23171.52580931  .00001662  00000-0  12247-3 0  9998,2 51721  53.2165 107.6135 0001195  75.5414 284.5710 15.08840404 73499,6917.879,95.438,540.571,538.917,0.0
51721.0,STARLINK-3524,PAYLOAD,2023-06-21 01:20:15,15.08836991,0.0001142,53.2175,105.237,84.2739,275.8383,-3.7675e-05,-8.87e-06,0.0,0 STARLINK-3524,1 51721U 22016H   23172.05573712 -.00000887  00000-0 -37675-4 0  9999,2 51721  53.2175 105.2370 0001142  84.2739 275.8383 15.08836991 74692,6917.89,95.438,540.545,538.965,0.0
51721.0,STARLINK-3524,PAYLOAD,2023-06-21 12:27:57,15.08840441,0.0001403,53.2172,103.1546,86.6547,273.4606,-5.1285e-05,-1.104e-05,0.0,0 STARLINK-3524,1 51721U 22016H   23172.51941523 -.00001104  00000-0 -51285-4 0  9995,2 51721  53.2172 103.1546 0001403  86.6547 273.4606 15.08840441 73645,6917.879,95.438,540.715,538.773,0.0
51721.0,STARLINK-3524,PAYLOAD,2023-06-22 04:21:48,15.08845862,0.0001258,53.2177,100.1802,84.3224,275.7912,-5.9867e-06,-3.83e-06,0.0,0 STARLINK-3524,1 51721U 22016H   23173.18181121 -.00000383  00000-0 -59867-5 0  9992,2 51721  53.2177 100.1802 0001258  84.3224 275.7912 15.08845862 74869,6917.862,95.437,540.598,538.857,0.0
51721.0,STARLINK-3524,PAYLOAD,2023-06-23 01:01:49,15.08836129,0.0001194,53.217,96.3163,87.059,273.0539,8.3388e-05,1.039e-05,0.0,0 STARLINK-3524,1 51721U 22016H   23174.04293650  .00001039  00000-0  83388-4 0  9990,2 51721  53.2170  96.3163 0001194  87.0590 273.0539 15.08836129 74999,6917.892,95.438,540.583,538.931,0.0
51721.0,STARLINK-3524,PAYLOAD,2023-06-23 12:09:31,15.08846972,0.0001157,53.2174,94.2348,107.3445,252.7673,3.3463e-05,2.45e-06,0.0,0 STARLINK-3524,1 51721U 22016H   23174.50661033  .00000245  00000-0  33463-4 0  9992,2 51721  53.2174  94.2348 0001157 107.3445 252.7673 15.08846972 75068,6917.859,95.437,540.524,538.924,0.0
51721.0,STARLINK-3524,PAYLOAD,2023-06-24 04:03:21,15.0885503,0.0001148,53.2176,91.2598,98.6626,261.4497,0.00012742,1.741e-05,0.0,0 STARLINK-3524,1 51721U 22016H   23175.16900292  .00001741  00000-0  12742-3 0  9996,2 51721  53.2176  91.2598 0001148  98.6626 261.4497 15.08855030 75164,6917.834,95.437,540.494,538.905,0.0
51721.0,STARLINK-3524,PAYLOAD,2023-06-24 12:00:18,15.08838879,0.000131,53.2178,89.7746,84.3415,275.7726,7.3542e-05,8.83e-06,0.0,0 STARLINK-3524,1 51721U 22016H   23175.50021531  .00000883  00000-0  73542-4 0  9996,2 51721  53.2178  89.7746 0001310  84.3415 275.7726 15.08838879 75213,6917.884,95.438,540.655,538.843,0.0
51721.0,STARLINK-3524,PAYLOAD,2023-06-25 03:54:09,15.08850264,0.0001265,53.2182,86.801,87.7248,272.3889,0.00010227,1.341e-05,0.0,0 STARLINK-3524,1 51721U 22016H   23176.16260826  .00001341  00000-0  10227-3 0  9991,2 51721  53.2182  86.8010 0001265  87.7248 272.3889 15.08850264 75316,6917.849,95.437,540.589,538.839,0.0
51721.0,STARLINK-3524,PAYLOAD,2023-06-26 02:09:33,15.08850362,0.0001163,53.2166,82.6375,92.6642,267.4483,7.4997e-05,9.06e-06,0.0,0 STARLINK-3524,1 51721U 22016H   23177.08996843  .00000906  00000-0  74997-4 0  9999,2 51721  53.2166  82.6375 0001163  92.6642 267.4483 15.08850362 75455,6917.849,95.437,540.518,538.909,0.0
51721.0,STARLINK-3524,PAYLOAD,2023-06-26 21:14:11,15.08832646,0.0001387,53.218,79.0693,94.3721,265.743,6.2469e-06,-1.89e-06,0.0,0 STARLINK-3524,1 51721U 22016H   23177.88485939 -.00000189  00000-0  62469-5 0  9992,2 51721  53.2180  79.0693 0001387  94.3721 265.7430 15.08832646 75570,6917.903,95.438,540.727,538.808,0.0
51721.0,STARLINK-3524,PAYLOAD,2023-06-28 03:26:31,15.08844375,0.0001242,53.2172,73.42,93.7469,266.3665,0.00016335,2.313e-05,0.0,0 STARLINK-3524,1 51721U 22016H   23179.14341794  .00002313  00000-0  16335-3 0  9992,2 51721  53.2172  73.4200 0001242  93.7469 266.3665 15.08844375 75765,6917.867,95.437,540.591,538.873,0.0
51721.0,STARLINK-3524,PAYLOAD,2023-06-29 01:41:55,15.08841297,0.000114,53.2167,69.2561,87.4562,272.656,0.00014984,2.098e-05,0.0,0 STARLINK-3524,1 51721U 22016H   23180.07078175  .00002098  00000-0  14984-3 0  9994,2 51721  53.2167  69.2561 0001140  87.4562 272.6560 15.08841297 75903,6917.876,95.437,540.53,538.953,0.0
51721.0,STARLINK-3524,PAYLOAD,2023-06-30 15:51:11,15.08838542,0.00011,53.2169,62.1224,77.6641,282.4474,0.00010306,1.353e-05,0.0,0 STARLINK-3524,1 51721U 22016H   23181.66054493  .00001353  00000-0  10306-3 0  9994,2 51721  53.2169  62.1224 0001100  77.6641 282.4474 15.08838542 76147,6917.885,95.438,540.511,538.989,0.0
51721.0,STARLINK-3524,PAYLOAD,2023-07-02 01:14:16,15.08848554,0.0001226,53.2182,55.8753,93.3615,266.7518,4.8925e-05,4.91e-06,0.0,0 STARLINK-3524,1 51721U 22016H   23183.05158045  .00000491  00000-0  48925-4 0  9998,2 51721  53.2182  55.8753 0001226  93.3615 266.7518 15.08848554 76354,6917.854,95.437,540.567,538.871,0.0
51721.0,STARLINK-3524,PAYLOAD,2023-07-02 15:32:45,15.08835705,0.0001325,53.2181,53.2,87.2072,272.9072,7.8542e-05,9.62e-06,0.0,0 STARLINK-3524,1 51721U 22016H   23183.64774863  .00000962  00000-0  78542-4 0  9996,2 51721  53.2181  53.2000 0001325  87.2072 272.9072 15.08835705 76447,6917.894,95.438,540.675,538.842,0.0
51721.0,STARLINK-3524,PAYLOAD,2023-07-03 01:05:03,15.08841873,0.0001328,53.2178,51.4152,88.7578,271.3567,0.00010268,1.347e-05,0.0,0 STARLINK-3524,1 51721U 22016H   23184.04518484  .00001347  00000-0  10268-3 0  9994,2 51721  53.2178  51.4152 0001328  88.7578 271.3567 15.08841873 76503,6917.875,95.437,540.658,538.821,0.0
51721.0,STARLINK-3524,PAYLOAD,2023-07-04 15:14:19,15.08837351,0.0001179,53.2175,44.2785,89.26,270.8527,7.3044e-05,8.75e-06,0.0,0 STARLINK-3524,1 51721U 22016H   23185.63494955  .00000875  00000-0  73044-4 0  9993,2 51721  53.2175  44.2785 0001179  89.2600 270.8527 15.08837351 76740,6917.888,95.438,540.569,538.938,0.0
51721.0,STARLINK-3524,PAYLOAD,2023-07-05 16:40:30,15.08836107,0.0001267,53.2191,39.5223,98.8011,261.3125,-5.9999e-06,-3.83e-06,0.0,0 STARLINK-3524,1 51721U 22016H   23186.69479350 -.00000383  00000-0 -59999-5 0  9992,2 51721  53.2191  39.5223 0001267  98.8011 261.3125 15.08836107 76907,6917.892,95.438,540.634,538.881,0.0
51721.0,STARLINK-3524,PAYLOAD,2023-07-06 16:31:16,15.08838671,0.0001174,53.2184,35.0605,94.5573,265.5554,0.00017937,2.568e-05,0.0,0 STARLINK-3524,1 51721U 22016H   23187.68838849  .00002568  00000-0  17937-3 0  9993,2 51721  53.2184  35.0605 0001174  94.5573 265.5554 15.08838671 77054,6917.884,95.438,540.562,538.937,0.0
51721.0,STARLINK-3524,PAYLOAD,2023-07-07 02:03:34,15.08853831,0.0001148,53.2184,33.2763,93.2426,266.8697,0.00014887,2.083e-05,0.0,0 STARLINK-3524,1 51721U 22016H   23188.08581969  .00002083  00000-0  14887-3 0  9999,2 51721  53.2184  33.2763 0001148  93.2426 266.8697 15.08853831 77117,6917.838,95.437,540.497,538.909,0.0
51721.0,STARLINK-3524,PAYLOAD,2023-07-07 19:32:50,15.08836903,0.0001058,53.2183,30.0054,97.3074,262.8039,0.00012645,1.725e-05,0.0,0 STARLINK-3524,1 51721U 22016H   23188.81447111  .00001725  00000-0  12645-3 0  9992,2 51721  53.2183  30.0054 0001058  97.3074 262.8039 15.08836903 77227,6917.89,95.438,540.487,539.023,0.0
51721.0,STARLINK-3524,PAYLOAD,2023-07-08 06:40:32,15.08831863,0.0001014,53.2181,27.9233,87.6828,272.4281,9.4491e-06,-1.37e-06,0.0,0 STARLINK-3524,1 51721U 22016H   23189.27815778 -.00000137  00000-0  94491-5 0  9999,2 51721  53.2181  27.9233 0001014  87.6828 272.4281 15.08831863 77293,6917.905,95.438,540.472,539.069,0.0
51721.0,STARLINK-3524,PAYLOAD,2023-07-08 19:23:37,15.08838239,0.0001037,53.2175,25.5446,84.4374,275.6737,2.9024e-05,1.74e-06,0.0,0 STARLINK-3524,1 51721U 22016H   23189.80807180  .00000174  00000-0  29024-4 0  9995,2 51721  53.2175  25.5446 0001037  84.4374 275.6737 15.08838239 77376,6917.886,95.438,540.468,539.033,0.0
51721.0,STARLINK-3524,PAYLOAD,2023-07-09 22:25:10,15.08842799,0.0001063,53.2174,20.4887,87.198,272.9134,0.00011457,1.536e-05,0.0,0 STARLINK-3524,1 51721U 22016H   23190.93415334  .00001536  00000-0  11457-3 0  9990,2 51721  53.2174  20.4887 0001063  87.1980 272.9134 15.08842799 77546,6917.872,95.437,540.472,539.001,0.0
51721.0,STARLINK-3524,PAYLOAD,2023-07-11 18:55:58,15.08839558,0.0001138,53.2194,12.162,88.5739,271.5384,7.0666e-05,8.37e-06,0.0,0 STARLINK-3524,1 51721U 22016H   23192.78887416  .00000837  00000-0  70666-4 0  9990,2 51721  53.2194  12.1620 0001138  88.5739 271.5384 15.08839558 77823,6917.882,95.438,540.534,538.959,0.0
51721.0,STARLINK-3524,PAYLOAD,2023-07-11 23:42:09,15.088212,0.0001359,53.2194,11.2699,88.6143,271.5004,0.00067763,0.00010507,0.0,0 STARLINK-3524,1 51721U 22016H   23192.98760538  .00010507  00000-0  67763-3 0  9995,2 51721  53.2194  11.2699 0001359  88.6143 271.5004 15.08821200 77851,6917.938,95.439,540.743,538.863,0.0
51721.0,STARLINK-3524,PAYLOAD,2023-07-12 12:25:13,15.08839101,0.0001038,53.2191,8.8929,91.9966,268.1145,-2.7813e-05,-7.3e-06,0.0,0 STARLINK-3524,1 51721U 22016H   23193.51751903 -.00000730  00000-0 -27813-4 0  9993,2 51721  53.2191   8.8929 0001038  91.9966 268.1145 15.08839101 77936,6917.883,95.438,540.466,539.03,0.0
51721.0,STARLINK-3524,PAYLOAD,2023-07-12 18:46:45,15.08847243,0.0001185,53.2191,7.7035,91.2934,268.8194,3.6765e-05,2.97e-06,0.0,0 STARLINK-3524,1 51721U 22016H   23193.78247282  .00000297  00000-0  36765-4 0  9994,2 51721  53.2191   7.7035 0001185  91.2934 268.8194 15.08847243 77974,6917.858,95.437,540.543,538.903,0.0
51721.0,STARLINK-3524,PAYLOAD,2023-07-13 17:02:10,15.08837585,0.0001079,53.2189,3.5411,91.5492,268.5624,2.8274e-05,1.62e-06,0.0,0 STARLINK-3524,1 51721U 22016H   23194.70984009  .00000162  00000-0  28274-4 0  9999,2 51721  53.2189   3.5411 0001079  91.5492 268.5624 15.08837585 78117,6917.888,95.438,540.499,539.006,0.0
